#dP2021  4  6  0  0  0.00000000      96 __u+U ITR00 FIT  IAC
## 2152 172800.00000000   900.00000000 59310 0.0000000000000
+  117   C06C07C08C09C10C11C12C13C14C16C19C20C21C22C23C24C25
+        C26C27C28C29C30C32C33C34C35C36C37C38C39C40C41C42C43
+        C44C45C46E01E02E03E04E05E07E08E09E11E12E13E14E15E18
+        E19E21E24E25E26E27E30E31E33E36G01G02G03G04G05G06G07
+        G08G09G10G11G12G13G14G15G16G17G18G19G20G21G22G23G24
+        G25G26G27G28G29G30G31G32J01J02J03R01R02R03R04R05R07
+        R08R09R11R12R13R14R15R16R17R18R19R20R21R22R24  0  0
++         8  9  8  6  9 10  9  8  7  9  7  7  7  8  8  8  7
++         7  8  7  6  7  7  8  7  7  7  8  8  7  9  8  7  7
++         5  8  7  5  6  7  7  6  6  6  7  6  7  6  6  6  5
++         6  5  6  7  6  5  6  7  7  7  5  6  6  7  6  6  7
++         6  7  5  6  6  5  6  5  7  5  5  6  6  6  6  6  6
++         6  6  5  6  5  6  5  6 10  9  9  7  6  6  7  7  6
++         7  8  6  6  8  5  6  5  6  6  8  7  6  7  5  0  0
%c M  cc GPS ccc cccc cccc cccc cccc ccccc ccccc ccccc ccccc
%c cc cc ccc ccc cccc cccc cccc cccc ccccc ccccc ccccc ccccc
%f  0.0000000  0.000000000  0.00000000000  0.000000000000000
%f  0.0000000  0.000000000  0.00000000000  0.000000000000000
%i    0    0    0    0      0      0      0      0         0
%i    0    0    0    0      0      0      0      0         0
/* INFORMATION & ANALYSIS CENTER (IAC)      ULTRA-RAPID DATA
/* S/V CLOCKS ARE ALIGNED TO GNSS TIME                      
/* G:C1WC2W R:C1PC2P E:C1XC5X C:C2IC6I J:C1CC2S             
/* PCV:IGS14_2134 OL/AL:FES2004  NONE     YN ORB:CoN CLK:CoN
*  2021 04 06 17  0  0.00000000
PC06 -12195.730866  37174.393172  16800.013074    251.207999
PC07 -14891.379392  22117.872806 -32441.149235    -93.289528
PC08 -25890.076978  28014.438273  17661.539994   -893.938196
PC09  -3433.225987  42221.697099   2157.609981    614.904975
PC10   1456.758606  28184.073274 -31020.294225    -60.437644
PC11  15614.454601  -6575.203249  22241.049263   -824.916140
PC12  12078.766144  14019.020599  20916.626318    923.006090
PC13 -12618.077840  29150.494902  27703.883271    210.806863
PC14  22336.037871   2126.402056 -16526.053778    399.922723
PC16  -8946.570926  39140.643495  13337.241280   -770.249869
PC19 -16526.669750   6413.627010  21588.279114    788.999608
PC20 -24349.674457  -9066.119361  10244.507996   -947.486943
PC21  17892.888355  19919.753121   7843.431519   -926.618137
PC22   1071.803231  18637.643359  20741.983673   -950.764887
PC23   9821.939164 -18512.511997  18427.794758   -884.530253
PC24  24345.752158    248.990234 -13671.987348   -805.309265
PC25  23807.750602 -14016.928528   4007.118140   -936.682776
PC26  11340.321708  12332.448841 -22330.927448    924.785921
PC27  -7484.137265 -22340.978577 -14955.313153    511.034161
PC28   4874.546442 -27414.683238   1860.541920    -89.453381
PC29 -13697.680423  16902.829812 -17488.601522    375.201007
PC30 -15477.200706  -4201.934557 -22840.788139    458.218081
PC32 -18089.511029 -19772.546904  -7781.270912   -932.360825
PC33  16532.088681  -6463.306500 -21516.347333   -942.416448
PC34  15613.383374   3479.806367  22857.828974   -701.949541
PC35  -4138.478983  27534.234142  -2172.431715   -339.548422
PC36 -24276.949241  13259.375403  -3658.852477   -733.836251
PC37 -10114.173840 -13100.664222  22478.638400   -890.473382
PC38 -22043.185486  29931.965971  19826.579714    140.577353
PC39  -4939.843316  40321.452567  11585.786117     30.069470
PC40   -905.137572  24469.420274 -34272.611569    148.488503
PC41   -873.555027 -18542.824132 -20780.793977   -940.057812
PC42  24374.665336   9624.809237  -9520.376601   -928.444666
PC43  14025.168787 -16341.403444  17725.817156   -673.472916
PC44   8161.814497  22284.723708  14702.892508    124.129885
PC45  -9705.755533  18437.182240 -18554.046674 999999.999999
PC46 -24671.778423    564.644687  12995.062173    328.470415
PE01  21510.328868 -10380.503323  17486.735241  -1081.368979
PE02 -21388.608198  10454.168250 -17583.491713    210.292410
PE03 -11032.268285  14702.969406  23201.989747   -417.188833
PE04  -3991.414235 -26838.818087 -11819.424583   -744.590770
PE05 -19788.440776  -6236.358298  21118.779197   -290.978740
PE07  16911.082903  23333.883944  -6731.416295   -522.263668
PE08   4418.326267  26857.627078  11624.479438   6021.702824
PE09 -17080.035959 -23172.770540   6930.940808   5709.775943
PE11  -9120.594623 -14744.512980 -23992.165681   6123.948696
PE12   7444.853440 -25942.043489 -12124.095235   5272.955361
PE13   8758.828912  15075.365908  23928.505262    414.638371
PE14 -20075.259773   4019.665238 -24871.037728  -1387.755192
PE15  -7371.617064  25962.351063  12178.291380    820.822346
PE18  12209.731101 -11963.449773  17199.070039  -1518.032341
PE19  12371.362319 -12501.312302 -23798.848085    245.606416
PE21  29563.446870   1291.943006    848.995877   -657.831096
PE24 -20061.889844 -13121.492892  17330.800189   -832.909491
PE25 -29554.909053  -1412.742675   -669.019149   -530.329579
PE26  20077.331574  -5278.691856  21103.625401   1955.337861
PE27  20775.118161  12688.639136 -16849.328061     -5.532527
PE30  -1263.274061  16550.676079 -24520.529622   3046.470791
PE31    181.358032 -16557.847426  24537.375704   -479.900487
PE33  19144.017927 -21539.302461   6737.408375   -467.276556
PE36 -19723.118787   4700.345687 -21565.553772   -190.100371
PG01  12170.231962 -21265.335499 -10049.000662    723.066477
PG02 -20605.107055  11675.391546 -11408.155705   -593.221264
PG03   4541.916565 -14393.516684 -21932.074023   -129.323125
PG04   2826.443535 -23711.476234 -11564.987025   -190.414548
PG05 -21056.208794   6020.252377  15008.605627    -38.326932
PG06 -17609.214100  -1085.613460 -19812.036899      5.357756
PG07   -977.240393 -18339.348181  19351.337964    113.842944
PG08   7821.293482 -17757.221468  17991.204099    -16.524517
PG09  -6049.918863 -25795.041636  -1746.013174   -336.941767
PG10  22463.393388  11888.057322   8286.793092    -96.529125
PG11   8044.600341 -25521.709597    142.831515     22.163323
PG12  -8724.170394  12702.346389 -21871.738710    -24.224135
PG13 -13447.384590   8711.330464  21027.389539    116.722831
PG14 -21253.844344 -13281.719537   8814.431545     97.730000
PG15  -6230.519412  18925.004975  17032.686898   -158.001471
PG16  23293.677268   -758.204676  12915.220142   -305.558277
PG17 -13019.209647 -18373.739310 -13654.412766    422.080879
PG18   3756.380720  16152.728390  20726.037757    351.562493
PG19 -14956.714883 -10269.315611 -19718.762604    -16.451281
PG20   4217.260731  15918.342417  20833.793372    523.448589
PG21  16843.566532 -20153.523300   -653.944688    108.979323
PG22  14305.762795 -11710.501667 -18807.083931   -643.976003
PG23  13626.466317  15353.378227  16857.632078    114.838319
PG24 -14622.244892  21544.045678  -4277.813551      0.104415
PG25   6458.639502  16362.837443 -20241.810294    113.458060
PG26  26267.382042   3338.426429   3427.813429     68.515409
PG27  13815.140212  -5456.331843  21831.691188   -107.890210
PG28 -21819.997063 -13393.054176   7230.088745    590.826480
PG29   4332.459237  26165.878524   -948.241016   -325.300424
PG30 -12874.327319  -9380.290502  21323.023128   -409.127921
PG31  19727.940130  -1163.798611 -18042.896337   -110.027267
PG32  15199.991342  15958.653788 -14838.785893     22.029056
PJ01 -25927.444921  21605.313238  30268.649778   -362.645424
PJ02 -33491.004537  16417.089804 -15116.791785      4.894358
PJ03 -21762.092324  30216.940489 -15181.307785     -2.912209
PR01    716.516542  15021.835372  20605.366334     77.496481
PR02  15608.153115  19816.305321   4040.152656    473.749296
PR03  18864.755912  11220.616075 -12992.687697     33.733465
PR04  11256.777924  -3445.142514 -22598.057938     81.208067
PR05  -2490.151369 -16205.572888 -19517.338486     69.499509
PR07 -18729.623215 -10632.627980  13675.729948    -42.560676
PR08 -11301.581748   3639.416948  22633.359250    -58.386039
PR09 -10736.269579  -8344.590417  21608.616697    -13.384048
PR11 -22830.311969   9018.392389  -6947.255247      1.405834
PR12  -8710.425776  12141.873438 -20644.810631    218.683231
PR13  10025.122880   8335.144989 -21945.130010    -53.060287
PR14  23456.229711   -559.931058  -9987.288496     62.848540
PR15  22748.107903  -8884.640829   7386.062903    104.517012
PR16   7533.732745 -12465.035129  20948.765902    -13.462525
PR17  10380.587434   2118.613620  23212.230372    414.094938
PR18  12494.257988 -14944.845056  16447.233418     72.312978
PR19   8992.768706 -23811.018156   1655.312058   -138.737152
PR20  -1341.347359 -19020.371903 -16908.986199    -46.785352
PR21 -10645.495254   -896.953807 -23162.307149   -199.834749
PR22 -12475.903371  15935.305533 -15608.696023   -106.461510
PR24   2349.768721  18643.228029  17263.632022     37.828080
EOF
